{
  "type": "FeatureCollection",
  "features": [
    {
      "type": "Feature",
      "properties": {
        "norad_id": 39777,
        "name": "IRIDIUM 33 DEB",
        "group": "iridium-33-debris",
        "lat": 85.35044862262292,
        "lon": -131.40859850950395,
        "alt_km": 670.0163195213054,
        "timestamp": "2025-12-26T13:39:19.365049+00:00",
        "meta_object_name": "IRIDIUM 33 DEB",
        "meta_object_id": "1997-051AAJ",
        "meta_epoch": "2025-12-26T05:00:39.510432",
        "meta_mean_motion": 14.56743034,
        "meta_eccentricity": 0.00605557,
        "meta_inclination": 85.9634,
        "meta_ra_of_asc_node": 168.5079,
        "meta_arg_of_pericenter": 141.5358,
        "meta_mean_anomaly": 219.019,
        "meta_ephemeris_type": 0,
        "meta_classification_type": "U",
        "meta_norad_cat_id": 39777,
        "meta_element_set_no": 999,
        "meta_rev_at_epoch": 60381,
        "meta_bstar": 0.0028913083,
        "meta_mean_motion_dot": 0.00013286,
        "meta_mean_motion_ddot": 0,
        "tle_line1": "1 39777U 97051AAJ 25360.20879063  .00013286  00000+0  28913-2 0  9990",
        "tle_line2": "2 39777  85.9634 168.5079 0060555 141.5358 219.0190 14.56743034603811"
      },
      "geometry": {
        "type": "Point",
        "coordinates": [
          -131.40859850950395,
          85.35044862262292
        ]
      }
    },
    {
      "type": "Feature",
      "properties": {
        "norad_id": 39778,
        "name": "IRIDIUM 33 DEB",
        "group": "iridium-33-debris",
        "lat": 9.986180359276977,
        "lon": -143.41802302631032,
        "alt_km": 717.7284732843063,
        "timestamp": "2025-12-26T13:39:19.365059+00:00",
        "meta_object_name": "IRIDIUM 33 DEB",
        "meta_object_id": "1997-051AAK",
        "meta_epoch": "2025-12-25T20:21:50.179680",
        "meta_mean_motion": 14.54348903,
        "meta_eccentricity": 0.00065112,
        "meta_inclination": 86.3769,
        "meta_ra_of_asc_node": 37.534,
        "meta_arg_of_pericenter": 359.9142,
        "meta_mean_anomaly": 0.2063,
        "meta_ephemeris_type": 0,
        "meta_classification_type": "U",
        "meta_norad_cat_id": 39778,
        "meta_element_set_no": 999,
        "meta_rev_at_epoch": 60883,
        "meta_bstar": 0.00084026877,
        "meta_mean_motion_dot": 3.588e-05,
        "meta_mean_motion_ddot": 0,
        "tle_line1": "1 39778U 97051AAK 25359.84849745  .00003588  00000+0  84027-3 0  9996",
        "tle_line2": "2 39778  86.3769  37.5340 0006511 359.9142   0.2063 14.54348903608830"
      },
      "geometry": {
        "type": "Point",
        "coordinates": [
          -143.41802302631032,
          9.986180359276977
        ]
      }
    },
    {
      "type": "Feature",
      "properties": {
        "norad_id": 39781,
        "name": "IRIDIUM 33 DEB",
        "group": "iridium-33-debris",
        "lat": 59.678093213309616,
        "lon": -101.48936816750812,
        "alt_km": 938.0025064572574,
        "timestamp": "2025-12-26T13:39:19.365070+00:00",
        "meta_object_name": "IRIDIUM 33 DEB",
        "meta_object_id": "1997-051AAN",
        "meta_epoch": "2025-12-26T00:09:41.273280",
        "meta_mean_motion": 14.20964815,
        "meta_eccentricity": 0.01723668,
        "meta_inclination": 86.3698,
        "meta_ra_of_asc_node": 252.511,
        "meta_arg_of_pericenter": 230.4954,
        "meta_mean_anomaly": 195.4493,
        "meta_ephemeris_type": 0,
        "meta_classification_type": "U",
        "meta_norad_cat_id": 39781,
        "meta_element_set_no": 999,
        "meta_rev_at_epoch": 8295,
        "meta_bstar": 0.0048537069,
        "meta_mean_motion_dot": 0.00012243,
        "meta_mean_motion_ddot": 0,
        "tle_line1": "1 39781U 97051AAN 25360.00672770  .00012243  00000+0  48537-2 0  9995",
        "tle_line2": "2 39781  86.3698 252.5110 0172366 230.4954 195.4493 14.20964815 82957"
      },
      "geometry": {
        "type": "Point",
        "coordinates": [
          -101.48936816750812,
          59.678093213309616
        ]
      }
    },
    {
      "type": "Feature",
      "properties": {
        "norad_id": 40996,
        "name": "IRIDIUM 33 DEB",
        "group": "iridium-33-debris",
        "lat": 40.56846365402227,
        "lon": -1.9249608449482833,
        "alt_km": 565.7585909009049,
        "timestamp": "2025-12-26T13:39:19.365080+00:00",
        "meta_object_name": "IRIDIUM 33 DEB",
        "meta_object_id": "1997-051ABJ",
        "meta_epoch": "2025-12-25T10:52:55.970112",
        "meta_mean_motion": 14.97048042,
        "meta_eccentricity": 0.0010436,
        "meta_inclination": 86.3519,
        "meta_ra_of_asc_node": 355.4655,
        "meta_arg_of_pericenter": 27.9702,
        "meta_mean_anomaly": 124.5027,
        "meta_ephemeris_type": 0,
        "meta_classification_type": "U",
        "meta_norad_cat_id": 40996,
        "meta_element_set_no": 999,
        "meta_rev_at_epoch": 62678,
        "meta_bstar": 0.0031302,
        "meta_mean_motion_dot": 0.00036257,
        "meta_mean_motion_ddot": 0,
        "tle_line1": "1 40996U 97051ABJ 25359.45342558  .00036257  00000+0  31302-2 0  9993",
        "tle_line2": "2 40996  86.3519 355.4655 0010436  27.9702 124.5027 14.97048042626785"
      },
      "geometry": {
        "type": "Point",
        "coordinates": [
          -1.9249608449482833,
          40.56846365402227
        ]
      }
    },
    {
      "type": "Feature",
      "properties": {
        "norad_id": 40998,
        "name": "IRIDIUM 33 DEB",
        "group": "iridium-33-debris",
        "lat": 85.42330190875943,
        "lon": 175.51362545064418,
        "alt_km": 729.87909552769,
        "timestamp": "2025-12-26T13:39:19.365090+00:00",
        "meta_object_name": "IRIDIUM 33 DEB",
        "meta_object_id": "1997-051ABL",
        "meta_epoch": "2025-12-24T09:47:24.769248",
        "meta_mean_motion": 14.45133252,
        "meta_eccentricity": 0.00087498,
        "meta_inclination": 86.3815,
        "meta_ra_of_asc_node": 48.6709,
        "meta_arg_of_pericenter": 52.6459,
        "meta_mean_anomaly": 324.4141,
        "meta_ephemeris_type": 0,
        "meta_classification_type": "U",
        "meta_norad_cat_id": 40998,
        "meta_element_set_no": 999,
        "meta_rev_at_epoch": 6850,
        "meta_bstar": 0.00046540464,
        "meta_mean_motion_dot": 1.648e-05,
        "meta_mean_motion_ddot": 0,
        "tle_line1": "1 40998U 97051ABL 25358.40792557  .00001648  00000+0  46540-3 0  9994",
        "tle_line2": "2 40998  86.3815  48.6709 0008749  52.6459 324.4141 14.45133252 68504"
      },
      "geometry": {
        "type": "Point",
        "coordinates": [
          175.51362545064418,
          85.42330190875943
        ]
      }
    },
    {
      "type": "Feature",
      "properties": {
        "norad_id": 46435,
        "name": "IRIDIUM 33 DEB",
        "group": "iridium-33-debris",
        "lat": 61.57190460803367,
        "lon": -165.1037751191426,
        "alt_km": 920.299389176289,
        "timestamp": "2025-12-26T13:39:19.365101+00:00",
        "meta_object_name": "IRIDIUM 33 DEB",
        "meta_object_id": "1997-051ABN",
        "meta_epoch": "2025-12-23T07:26:56.673024",
        "meta_mean_motion": 14.32901113,
        "meta_eccentricity": 0.02063954,
        "meta_inclination": 86.2811,
        "meta_ra_of_asc_node": 189.3996,
        "meta_arg_of_pericenter": 241.8575,
        "meta_mean_anomaly": 300.4526,
        "meta_ephemeris_type": 0,
        "meta_classification_type": "U",
        "meta_norad_cat_id": 46435,
        "meta_element_set_no": 999,
        "meta_rev_at_epoch": 8067,
        "meta_bstar": 0.0098042113,
        "meta_mean_motion_dot": 0.00034078,
        "meta_mean_motion_ddot": 0,
        "tle_line1": "1 46435U 97051ABN 25357.31037816  .00034078  00000+0  98042-2 0  9991",
        "tle_line2": "2 46435  86.2811 189.3996 0206395 241.8575 300.4526 14.32901113 80678"
      },
      "geometry": {
        "type": "Point",
        "coordinates": [
          -165.1037751191426,
          61.57190460803367
        ]
      }
    },
    {
      "type": "Feature",
      "properties": {
        "norad_id": 46734,
        "name": "IRIDIUM 33 DEB",
        "group": "iridium-33-debris",
        "lat": -6.587787882478623,
        "lon": -3.63981645975805,
        "alt_km": 744.2840906477322,
        "timestamp": "2025-12-26T13:39:19.365113+00:00",
        "meta_object_name": "IRIDIUM 33 DEB",
        "meta_object_id": "1997-051ABR",
        "meta_epoch": "2025-12-23T07:42:11.180736",
        "meta_mean_motion": 14.41950916,
        "meta_eccentricity": 0.00375691,
        "meta_inclination": 86.2641,
        "meta_ra_of_asc_node": 358.2178,
        "meta_arg_of_pericenter": 299.6503,
        "meta_mean_anomaly": 123.5651,
        "meta_ephemeris_type": 0,
        "meta_classification_type": "U",
        "meta_norad_cat_id": 46734,
        "meta_element_set_no": 999,
        "meta_rev_at_epoch": 63163,
        "meta_bstar": 0.0010295637,
        "meta_mean_motion_dot": 3.42e-05,
        "meta_mean_motion_ddot": 0,
        "tle_line1": "1 46734U 97051ABR 25357.32096274  .00003420  00000+0  10296-2 0  9999",
        "tle_line2": "2 46734  86.2641 358.2178 0037569 299.6503 123.5651 14.41950916631633"
      },
      "geometry": {
        "type": "Point",
        "coordinates": [
          -3.63981645975805,
          -6.587787882478623
        ]
      }
    }
  ]
}